STARLINK-1266           
1 45383U 20019Z   26068.46483719  .00088069  00000+0  17997-2 0  9994
2 45383  53.0503 134.0330 0004374  12.7123 347.3992 15.45424585330162
STARLINK-1274           
1 45387U 20019AD  26068.46376850  .00078205  00000+0  15166-2 0  9992
2 45387  53.0276 104.0147 0003121 240.3604 119.7091 15.47008118330587
