[{"OBJECT_NAME":"STARLINK-1266","OBJECT_ID":"2020-019Z","EPOCH":"2026-03-09T11:09:21.933216","MEAN_MOTION":15.45424585,"ECCENTRICITY":0.00043744,"INCLINATION":53.0503,"RA_OF_ASC_NODE":134.033,"ARG_OF_PERICENTER":12.7123,"MEAN_ANOMALY":347.3992,"EPHEMERIS_TYPE":0,"CLASSIFICATION_TYPE":"U","NORAD_CAT_ID":45383,"ELEMENT_SET_NO":999,"REV_AT_EPOCH":33016,"BSTAR":0.0017997323,"MEAN_MOTION_DOT":0.00088069,"MEAN_MOTION_DDOT":0},{"OBJECT_NAME":"STARLINK-1274","OBJECT_ID":"2020-019AD","EPOCH":"2026-03-09T11:07:49.598400","MEAN_MOTION":15.47008118,"ECCENTRICITY":0.00031219,"INCLINATION":53.0276,"RA_OF_ASC_NODE":104.0147,"ARG_OF_PERICENTER":240.3604,"MEAN_ANOMALY":119.7091,"EPHEMERIS_TYPE":0,"CLASSIFICATION_TYPE":"U","NORAD_CAT_ID":45387,"ELEMENT_SET_NO":999,"REV_AT_EPOCH":33058,"BSTAR":0.0015166091,"MEAN_MOTION_DOT":0.00078205,"MEAN_MOTION_DDOT":0}]
